NORAD_CAT_ID,OBJECT_NAME,OBJECT_TYPE,EPOCH,MEAN_MOTION,ECCENTRICITY,INCLINATION,RA_OF_ASC_NODE,ARG_OF_PERICENTER,MEAN_ANOMALY,BSTAR,MEAN_MOTION_DOT,MEAN_MOTION_DDOT,TLE_LINE0,TLE_LINE1,TLE_LINE2,SEMIMAJOR_AXIS,PERIOD,APOGEE,PERIGEE,DECAYED
51146.0,STARLINK-3354,PAYLOAD,2023-01-15 02:47:37,15.08838862,0.0002679,53.215,59.7672,45.9866,314.1346,0.00037136,5.627e-05,0.0,0 STARLINK-3354,1 51146U 22005AU  23015.11640678  .00005627  00000-0  37136-3 0  9993,2 51146  53.2150  59.7672 0002679  45.9866 314.1346 15.08838862 56308,6917.884,95.438,541.602,537.896,0.0
51146.0,STARLINK-3354,PAYLOAD,2023-01-15 12:19:56,15.08843377,0.0002505999999999,53.2148,57.9834,47.9286,312.1919,0.0004396,6.716e-05,0.0,0 STARLINK-3354,1 51146U 22005AU  23015.51384626  .00006716  00000-0  43960-3 0  9997,2 51146  53.2148  57.9834 0002506  47.9286 312.1919 15.08843377 55245,6917.87,95.437,541.469,538.001,0.0
51146.0,STARLINK-3354,PAYLOAD,2023-01-15 20:16:52,15.08844681,0.0002557,53.2145,56.4962,48.0219,312.099,0.00041048,6.252e-05,0.0,0 STARLINK-3354,1 51146U 22005AU  23015.84504708  .00006252  00000-0  41048-3 0  9998,2 51146  53.2145  56.4962 0002557  48.0219 312.0990 15.08844681 55294,6917.866,95.437,541.5,537.962,0.0
51146.0,STARLINK-3354,PAYLOAD,2023-01-16 05:49:10,15.0885312,0.0002581,53.2146,54.7117,46.8379,313.2828,0.00050556,7.77e-05,0.0,0 STARLINK-3354,1 51146U 22005AU  23016.24248399  .00007770  00000-0  50556-3 0  9994,2 51146  53.2146  54.7117 0002581  46.8379 313.2828 15.08853120 56470,6917.84,95.437,541.491,537.92,0.0
51146.0,STARLINK-3354,PAYLOAD,2023-01-16 12:10:42,15.08871254,0.0002029999999999,53.2155,53.52,57.5326,302.5862,0.0010535,0.00016533,0.0,0 STARLINK-3354,1 51146U 22005AU  23016.50743686  .00016533  00000-0  10535-2 0  9991,2 51146  53.2155  53.5200 0002030  57.5326 302.5862 15.08871254 55397,6917.785,95.436,541.054,538.246,0.0
51146.0,STARLINK-3354,PAYLOAD,2023-01-17 02:29:11,15.08820229,0.0001836,53.2143,50.8467,46.3237,313.7907,-0.00050128,-8.253e-05,0.0,0 STARLINK-3354,1 51146U 22005AU  23017.10360994 -.00008253  00000-0 -50128-3 0  9990,2 51146  53.2143  50.8467 0001836  46.3237 313.7907 15.08820229 56604,6917.941,95.439,541.076,538.536,0.0
51146.0,STARLINK-3354,PAYLOAD,2023-01-17 08:50:45,15.08813745,0.0001746,53.2148,49.656000000000006,59.3359,300.7805,-0.00045641,-7.539e-05,0.0,0 STARLINK-3354,1 51146U 22005AU  23017.36857657 -.00007539  00000-0 -45641-3 0  9995,2 51146  53.2148  49.6560 0001746  59.3359 300.7805 15.08813745 55526,6917.960999999999,95.439,541.034,538.618,0.0
51146.0,STARLINK-3354,PAYLOAD,2023-01-18 07:06:09,15.08857926,0.0001821,53.2159,45.4931,72.4275,287.6916,0.0015974,0.00025239,0.0,0 STARLINK-3354,1 51146U 22005AU  23018.29594025  .00025239  00000-0  15974-2 0  9995,2 51146  53.2159  45.4931 0001821  72.4275 287.6916 15.08857926 56785,6917.826,95.436,540.95,538.431,0.0
51146.0,STARLINK-3354,PAYLOAD,2023-01-18 08:41:32,15.08875901,0.0001723,53.2157,45.1952,69.7275,290.3902,0.0023659,0.00037604,0.0,0 STARLINK-3354,1 51146U 22005AU  23018.36217815  .00037604  00000-0  23659-2 0  9990,2 51146  53.2157  45.1952 0001723  69.7275 290.3902 15.08875901 56793,6917.771,95.435,540.828,538.444,0.0
51146.0,STARLINK-3354,PAYLOAD,2023-01-18 18:13:50,15.08865184,0.0001914,53.2162,43.4112,69.6807,290.4391,0.0015644,0.00024715,0.0,0 STARLINK-3354,1 51146U 22005AU  23018.75961723  .00024715  00000-0  15644-2 0  9991,2 51146  53.2162  43.4112 0001914  69.6807 290.4391 15.08865184 56852,6917.803000000001,95.436,540.992,538.344,0.0
51146.0,STARLINK-3354,PAYLOAD,2023-01-19 10:07:42,15.08850542,0.0001684,53.2151,40.4373,70.9794,289.1381,0.00083189,0.0001298,0.0,0 STARLINK-3354,1 51146U 22005AU  23019.42201985  .00012980  00000-0  83189-3 0  9994,2 51146  53.2151  40.4373 0001684  70.9794 289.1381 15.08850542 56957,6917.848000000001,95.437,540.878,538.548,0.0
51146.0,STARLINK-3354,PAYLOAD,2023-01-19 11:43:05,15.08850783,0.0001675999999999,53.2149,40.1396,71.1816,288.9358,0.0023139,0.00036741,0.0,0 STARLINK-3354,1 51146U 22005AU  23019.48826199  .00036741  00000-0  23139-2 0  9999,2 51146  53.2149  40.1396 0001676  71.1816 288.9358 15.08850783 55840,6917.847,95.437,540.872,538.553,0.0
51146.0,STARLINK-3354,PAYLOAD,2023-01-19 18:04:38,15.08844638,0.0001693,53.2141,38.9503,73.9648,286.1531,0.0010692,0.00016771,0.0,0 STARLINK-3354,1 51146U 22005AU  23019.75322275  .00016771  00000-0  10692-2 0  9996,2 51146  53.2141  38.9503 0001693  73.9648 286.1531 15.08844638 57004,6917.866,95.437,540.9019999999999,538.56,0.0
51146.0,STARLINK-3354,PAYLOAD,2023-01-20 11:33:52,15.0887176,0.000173,53.2143,35.6789,77.301,282.8176,0.00123,0.00019359,0.0,0 STARLINK-3354,1 51146U 22005AU  23020.48185422  .00019359  00000-0  12300-2 0  9992,2 51146  53.2143  35.6789 0001730  77.3010 282.8176 15.08871760 55999,6917.783,95.436,540.845,538.452,0.0
51146.0,STARLINK-3354,PAYLOAD,2023-01-21 01:52:20,15.08854066,0.0002034,53.2136,33.0025,86.2847,273.8377,0.00036144,5.471e-05,0.0,0 STARLINK-3354,1 51146U 22005AU  23021.07801491  .00005471  00000-0  36144-3 0  9992,2 51146  53.2136  33.0025 0002034  86.2847 273.8377 15.08854066 57200,6917.837,95.437,541.109,538.295,0.0
51146.0,STARLINK-3354,PAYLOAD,2023-01-22 09:40:02,15.08860241,0.0001623,53.2151,27.0524,106.828,253.289,0.00077465,0.00012069,0.0,0 STARLINK-3354,1 51146U 22005AU  23022.40280772  .00012069  00000-0  77465-3 0  9995,2 51146  53.2151  27.0524 0001623 106.8280 253.2890 15.08860241 57403,6917.819,95.436,540.806,538.561,0.0
51146.0,STARLINK-3354,PAYLOAD,2023-01-22 17:36:58,15.08842023,0.0001303,53.2155,25.5671,120.3573,239.7548,0.00019242,2.776e-05,0.0,0 STARLINK-3354,1 51146U 22005AU  23022.73400964  .00002776  00000-0  19242-3 0  9991,2 51146  53.2155  25.5671 0001303 120.3573 239.7548 15.08842023 57456,6917.874,95.437,540.641,538.8380000000001,0.0
51146.0,STARLINK-3354,PAYLOAD,2023-01-22 23:58:31,15.08825236,0.0001486,53.2156,24.3789,104.8715,255.2442,-0.00017229,-3.028e-05,0.0,0 STARLINK-3354,1 51146U 22005AU  23022.99897457 -.00003028  00000-0 -17229-3 0  9992,2 51146  53.2156  24.3789 0001486 104.8715 255.2442 15.08825236 57498,6917.926,95.438,540.819,538.763,0.0
51146.0,STARLINK-3354,PAYLOAD,2023-01-23 09:30:50,15.08836978,0.0002064,53.2155,22.5931,102.9189,257.2033,0.00066627,0.00010331,0.0,0 STARLINK-3354,1 51146U 22005AU  23023.39641776  .00010331  00000-0  66627-3 0  9997,2 51146  53.2155  22.5931 0002064 102.9189 257.2033 15.08836978 57553,6917.89,95.438,541.182,538.327,0.0
51146.0,STARLINK-3354,PAYLOAD,2023-01-24 04:35:28,15.08840514,0.0001626,53.216,19.0245,114.9084,245.2078,0.00054734,8.434e-05,0.0,0 STARLINK-3354,1 51146U 22005AU  23024.19130139  .00008434  00000-0  54734-3 0  9999,2 51146  53.2160  19.0245 0001626 114.9084 245.2078 15.08840514 57678,6917.879,95.438,540.869,538.619,0.0
51146.0,STARLINK-3354,PAYLOAD,2023-01-25 02:50:52,15.08840051,0.0001968,53.2151,14.8586,119.0718,241.0471,0.00016811,2.388e-05,0.0,0 STARLINK-3354,1 51146U 22005AU  23025.11866267  .00002388  00000-0  16811-3 0  9996,2 51146  53.2151  14.8586 0001968 119.0718 241.0471 15.08840051 57811,6917.88,95.438,541.107,538.384,0.0
51146.0,STARLINK-3354,PAYLOAD,2023-01-25 07:37:01,15.08845972,0.0001424,53.2168,13.9715,103.6972,256.4179,0.00037549,5.694e-05,0.0,0 STARLINK-3354,1 51146U 22005AU  23025.31738318  .00005694  00000-0  37549-3 0  9997,2 51146  53.2168  13.9715 0001424 103.6972 256.4179 15.08845972 56722,6917.861999999999,95.437,540.712,538.742,0.0
51146.0,STARLINK-3354,PAYLOAD,2023-01-25 15:33:57,15.08844676,0.0001474,53.2174,12.483,98.5751,261.5408,0.00031264,4.692e-05,0.0,0 STARLINK-3354,1 51146U 22005AU  23025.64858284  .00004692  00000-0  31264-3 0  9993,2 51146  53.2174  12.4830 0001474  98.5751 261.5408 15.08844676 56770,6917.866,95.437,540.751,538.711,0.0
51146.0,STARLINK-3354,PAYLOAD,2023-01-26 09:03:11,15.08850151,0.0001393,53.2164,9.2123,96.9591,263.156,0.00032297,4.857e-05,0.0,0 STARLINK-3354,1 51146U 22005AU  23026.37722017  .00004857  00000-0  32297-3 0  9998,2 51146  53.2164   9.2123 0001393  96.9591 263.1560 15.08850151 58002,6917.849,95.437,540.678,538.751,0.0
51146.0,STARLINK-3354,PAYLOAD,2023-01-27 05:43:12,15.08843867,0.0001414,53.2167,5.3486,100.4581,259.657,7.5098e-05,9.08e-06,0.0,0 STARLINK-3354,1 51146U 22005AU  23027.23834102  .00000908  00000-0  75098-4 0  9993,2 51146  53.2167   5.3486 0001414 100.4581 259.6570 15.08843867 58139,6917.869000000001,95.437,540.712,538.755,0.0
51146.0,STARLINK-3354,PAYLOAD,2023-01-27 07:18:35,15.08847149,0.0001306,53.2163,5.0494,88.7149,271.3993,0.00011283,1.509e-05,0.0,0 STARLINK-3354,1 51146U 22005AU  23027.30458027  .00001509  00000-0  11283-3 0  9992,2 51146  53.2163   5.0494 0001306  88.7149 271.3993 15.08847149 57023,6917.859,95.437,540.627,538.82,0.0
51146.0,STARLINK-3354,PAYLOAD,2023-01-28 02:23:14,15.08833784,0.0001252,53.2152,1.4822,90.9604,269.1531,1.1963e-05,-9.7e-07,0.0,0 STARLINK-3354,1 51146U 22005AU  23028.09946882 -.00000097  00000-0  11963-4 0  9998,2 51146  53.2152   1.4822 0001252  90.9604 269.1531 15.08833784 58267,6917.899,95.438,540.631,538.898,0.0
51146.0,STARLINK-3354,PAYLOAD,2023-01-28 07:09:23,15.08840677,0.000135,53.2164,0.5876,79.5795,280.5349,2.2026e-06,-2.53e-06,0.0,0 STARLINK-3354,1 51146U 22005AU  23028.29818500 -.00000253  00000-0  22026-5 0  9992,2 51146  53.2164   0.5876 0001350  79.5795 280.5349 15.08840677 57174,6917.878,95.438,540.677,538.809,0.0
51146.0,STARLINK-3354,PAYLOAD,2023-01-28 21:27:51,15.08842036,0.000109,53.2145,357.912,88.5,271.6117,0.00016119,2.279e-05,0.0,0 STARLINK-3354,1 51146U 22005AU  23028.89434469  .00002279  00000-0  16119-3 0  9999,2 51146  53.2145 357.9120 0001090  88.5000 271.6117 15.08842036 57269,6917.874,95.437,540.493,538.985,0.0
51146.0,STARLINK-3354,PAYLOAD,2023-01-29 07:00:09,15.08852619,0.0001161,53.215,356.1267,84.0719,276.0405,0.00030279,4.536e-05,0.0,0 STARLINK-3354,1 51146U 22005AU  23029.29178060  .00004536  00000-0  30279-3 0  9997,2 51146  53.2150 356.1267 0001161  84.0719 276.0405 15.08852619 58443,6917.842,95.437,540.51,538.904,0.0
